IRIDIUM 116             
1 43072U 17083C   24141.45909956  .00000722  00000+0  25081-3 0  9993
2 43072  86.3940 278.6567 0002185  95.1896 264.9550 14.34222939335565
IRIDIUM 130             
1 43073U 17083D   24141.42739782  .00000421  00000+0  14336-3 0  9996
2 43073  86.3947 278.8719 0002086  93.7087 266.4348 14.34217986335502
IRIDIUM 151             
1 43074U 17083E   24141.47179599  .00000621  00000+0  21458-3 0  9991
2 43074  86.3942 278.6921 0002402  92.9088 267.2382 14.34218649335532
IRIDIUM 134             
1 43075U 17083F   24141.44008194  .00000038  00000+0  65696-5 0  9997
2 43075  86.3943 278.7031 0001932  95.7176 264.4240 14.34215455335492
IRIDIUM 137             
1 43076U 17083G   24141.45276826 -.00000121  00000+0 -50349-4 0  9991
2 43076  86.3944 278.7758 0002320 103.4276 256.7178 14.34215008335566
IRIDIUM 141             
1 43077U 17083H   24141.44642265  .00001419  00000+0  49961-3 0  9991
2 43077  86.3939 278.6518 0002141  88.3840 271.7601 14.34215494335560
IRIDIUM 153             
1 43078U 17083J   24141.32882155  .00000623  00000+0  21535-3 0  9996
2 43078  86.3989 247.1511 0002168  73.1229 287.0205 14.34211645336657
IRIDIUM 131             
1 43079U 17083K   24141.43373610  .00000418  00000+0  14228-3 0  9993
2 43079  86.3941 278.7932 0002587  94.2331 265.9160 14.34215474335496
